     2.100          NAVIGATION                              RINEX VERSION / TYPE
fic2rin                                 09/15/2012 00:12:59 PGM / RUN BY / DATE
                                                            END OF HEADER
13 12  9 14  2  0  0.0  .181302428246D-03 -.261479726760D-11  .000000000000D+00
     .106000000000D+03 -.579687500000D+02  .404016828923D-08  .604201216412D+00
    -.317208468914D-05  .482445268426D-02  .976957380772D-05  .515361821747D+04
     .439200000000D+06 -.260770320892D-07 -.922636852008D+00 -.987201929092D-07
     .984339888290D+00  .204312500000D+03  .207820898129D+01 -.788068540504D-08
    -.679671168175D-09  .100000000000D+01  .170500000000D+04  .000000000000D+00
     .240000000000D+01  .000000000000D+00 -.111758708954D-07  .106000000000D+03
     .432006000000D+06  .400000000000D+01
14 12  9 14  2  0  0.0  .212579499930D-03  .909494701773D-12  .000000000000D+00
     .680000000000D+02 -.446250000000D+02  .429196449183D-08  .864712859356D+00
    -.227615237236D-05  .679670670070D-02  .956840813160D-05  .515363773918D+04
     .439200000000D+06 -.409781932831D-07 -.950099872250D+00  .819563865662D-07
     .977104370079D+00  .207156250000D+03 -.205263713230D+01 -.801854829044D-08
    -.683599903251D-09  .100000000000D+01  .170500000000D+04  .000000000000D+00
     .240000000000D+01  .000000000000D+00 -.931322574615D-08  .680000000000D+02
     .432006000000D+06  .400000000000D+01
16 12  9 14  2  0  0.0 -.245966948569D-03 -.795807864051D-12  .000000000000D+00
     .560000000000D+02  .344062500000D+02  .440482633584D-08  .203512571762D+01
     .183284282684D-05  .652743747924D-02  .279396772385D-05  .515373892784D+04
     .439200000000D+06 -.596046447754D-07  .112115388008D+01  .372529029846D-07
     .981636781409D+00  .338843750000D+03  .312860391891D-01 -.828427364468D-08
     .112147528538D-09  .100000000000D+01  .170500000000D+04  .000000000000D+00
     .240000000000D+01  .000000000000D+00 -.977888703346D-08  .560000000000D+02
     .432006000000D+06  .400000000000D+01
17 12  9 14  2  0  0.0  .967038795352D-04 -.329691829393D-11  .000000000000D+00
     .550000000000D+02 -.104750000000D+03  .449697303126D-08  .112211971322D+01
    -.553764402866D-05  .752074271441D-02  .744313001633D-05  .515373973465D+04
     .439200000000D+06 -.111758708954D-06  .216109711944D+01 -.130385160446D-07
     .963543047801D+00  .236531250000D+03 -.229598609976D+01 -.824891502899D-08
    -.411088552060D-09  .100000000000D+01  .170500000000D+04  .000000000000D+00
     .240000000000D+01  .000000000000D+00 -.107102096081D-07  .550000000000D+02
     .432006000000D+06  .400000000000D+01
18 12  9 14  2  0  0.0  .214844942093D-03  .181898940355D-11  .000000000000D+00
     .430000000000D+02  .285000000000D+02  .571452374714D-08  .258003830653D+01
     .128895044327D-05  .136499691289D-01  .361911952496D-05  .515372248840D+04
     .439200000000D+06  .130385160446D-07 -.205878591450D+01 -.217929482460D-06
     .928735224979D+00  .291562500000D+03 -.214430479776D+01 -.856928551657D-08
     .174650132022D-09  .100000000000D+01  .170500000000D+04  .000000000000D+00
     .240000000000D+01  .000000000000D+00 -.107102096081D-07  .430000000000D+02
     .432006000000D+06  .400000000000D+01
20 12  9 14  2  0  0.0  .681597739458D-04  .795807864051D-12  .000000000000D+00
     .620000000000D+02  .417812500000D+02  .579381276413D-08  .302810439465D+01
     .213086605072D-05  .501004024409D-02  .438839197159D-05  .515362937737D+04
     .439200000000D+06  .577419996262D-07 -.211244989556D+01 -.126659870148D-06
     .929332897234D+00  .275718750000D+03  .127457946026D+01 -.874429280632D-08
     .307869966877D-09  .100000000000D+01  .170500000000D+04  .000000000000D+00
     .240000000000D+01  .000000000000D+00 -.791624188423D-08  .620000000000D+02
     .432006000000D+06  .400000000000D+01
21 12  9 14  2  0  0.0 -.249524135143D-03 -.238742359215D-11  .000000000000D+00
     .122000000000D+03  .265625000000D+02  .488520348833D-08 -.255897489750D+01
     .987201929092D-06  .193077982403D-01  .121854245663D-04  .515380631638D+04
     .439200000000D+06  .214204192162D-06 -.310846800433D+01 -.165775418282D-06
     .931939119439D+00  .125375000000D+03 -.221720596577D+01 -.792425864861D-08
     .556094592143D-09  .100000000000D+01  .170500000000D+04  .000000000000D+00
     .240000000000D+01  .000000000000D+00 -.111758708954D-07  .122000000000D+03
     .432006000000D+06  .400000000000D+01
22 12  9 14  2  0  0.0  .147868413478D-03  .454747350886D-12  .000000000000D+00
     .960000000000D+02  .289062500000D+02  .594417617023D-08  .181573804338D+01
     .145658850670D-05  .631306751166D-02  .400282442570D-05  .515366706085D+04
     .439200000000D+06 -.109896063805D-06 -.205563713694D+01 -.162050127983D-06
     .926462663666D+00  .285906250000D+03 -.200467685525D+01 -.885429738846D-08
     .241438628317D-09  .100000000000D+01  .170500000000D+04  .000000000000D+00
     .240000000000D+01  .000000000000D+00 -.172294676304D-07  .960000000000D+02
     .432006000000D+06  .400000000000D+01
23 12  9 14  2  0  0.0  .164784956723D-03 -.386535248253D-11  .000000000000D+00
     .890000000000D+02 -.595312500000D+02  .477055585566D-08 -.957033253991D-01
    -.325776636600D-05  .824499374721D-02  .870227813721D-05  .515358316994D+04
     .439200000000D+06  .100582838058D-06 -.100418392438D+01  .204890966415D-07
     .958628491547D+00  .208468750000D+03 -.293673775969D+01 -.830213153139D-08
    -.698243370353D-09  .100000000000D+01  .170500000000D+04  .000000000000D+00
     .240000000000D+01  .000000000000D+00 -.200234353542D-07  .890000000000D+02
     .432006000000D+06  .400000000000D+01
25 12  9 14  2  0  0.0  .427537597716D-04  .125055521494D-11  .000000000000D+00
     .950000000000D+02  .396875000000D+02  .455626121514D-08  .306916259787D+01
     .211223959923D-05  .182522146497D-02  .262819230556D-05  .515365537071D+04
     .439200000000D+06  .521540641785D-07  .106758057068D+01  .130385160446D-07
     .969729694711D+00  .332937500000D+03  .780305937206D+00 -.834927635230D-08
     .241438628317D-09  .100000000000D+01  .170500000000D+04  .000000000000D+00
     .240000000000D+01  .000000000000D+00  .512227416039D-08  .950000000000D+02
     .432006000000D+06  .400000000000D+01
27 12  9 14  2  0  0.0  .431021675467D-03  .420641299570D-11  .000000000000D+00
     .121000000000D+03  .436250000000D+02  .382408786004D-08  .583580536129D+00
     .199489295483D-05  .217743159737D-01  .117570161819D-04  .515368992424D+04
     .439200000000D+06 -.428408384323D-07 -.579637255075D-02 -.379979610443D-06
     .982321936166D+00  .173187500000D+03 -.103584393078D+01 -.801390523989D-08
    -.300012496725D-10  .100000000000D+01  .170500000000D+04  .000000000000D+00
     .240000000000D+01  .000000000000D+00 -.419095158577D-08  .121000000000D+03
     .432006000000D+06  .400000000000D+01
28 12  9 14  2  0  0.0  .185164157301D-03  .375166564481D-11  .000000000000D+00
     .165000000000D+03  .413125000000D+02  .439411160381D-08  .176603189210D+01
     .178441405296D-05  .180455096997D-01  .302679836750D-05  .515362622833D+04
     .439200000000D+06 -.633299350739D-07  .112773778093D+01 -.409781932831D-06
     .980018498504D+00  .330062500000D+03 -.182058324123D+01 -.824248618978D-08
     .240724312848D-09  .100000000000D+01  .170500000000D+04  .000000000000D+00
     .240000000000D+01  .000000000000D+00 -.107102096081D-07  .165000000000D+03
     .432006000000D+06  .400000000000D+01
29 12  9 14  2  0  0.0  .355236697942D-03  .409272615798D-11  .000000000000D+00
     .480000000000D+02 -.973125000000D+02  .438518266046D-08 -.237007832446D+01
    -.500865280628D-05  .186066178139D-02  .813975930214D-05  .515379084778D+04
     .439200000000D+06  .931322574615D-08  .216972883058D+01  .670552253723D-07
     .964120588841D+00  .221687500000D+03 -.105481642612D+01 -.808105089392D-08
    -.313584490624D-09  .100000000000D+01  .170500000000D+04  .000000000000D+00
     .240000000000D+01  .000000000000D+00 -.977888703346D-08  .480000000000D+02
     .432006000000D+06  .400000000000D+01
31 12  9 14  2  0  0.0  .274232588708D-03  .250111042988D-11  .000000000000D+00
     .135000000000D+03  .903437500000D+02  .379515808357D-08 -.169206048833D+01
     .461935997009D-05  .781626708340D-02  .118166208267D-04  .515372972679D+04
     .439200000000D+06 -.113621354103D-06  .496559805080D-01  .670552253723D-07
     .981247744679D+00  .165968750000D+03 -.858980372438D+00 -.777460955798D-08
     .180007498035D-09  .100000000000D+01  .170500000000D+04  .000000000000D+00
     .240000000000D+01  .000000000000D+00 -.135041773319D-07  .135000000000D+03
     .432006000000D+06  .400000000000D+01
30 12  9 14  3  0  0.0 -.414466019720D-03  .178488335223D-10  .000000000000D+00
     .790000000000D+02  .534375000000D+02  .485091634585D-08  .151448109491D+01
     .240281224251D-05  .111753183883D-01  .311806797981D-05  .515370484352D+04
     .442800000000D+06  .651925802231D-07  .975633594667D+00 -.488013029099D-06
     .960969687125D+00  .319906250000D+03  .160619959092D+01 -.853428405862D-08
     .283226083217D-09  .100000000000D+01  .170500000000D+04  .000000000000D+00
     .960000000000D+02  .630000000000D+02 -.419095158577D-08  .790000000000D+02
     .432006000000D+06  .600000000000D+01
30 12  9 14  1 59 44.0 -.414292793721D-03  .201225702767D-10  .000000000000D+00
     .150000000000D+02  .555000000000D+02  .491663336894D-08  .987092039500D+00
     .269711017609D-05  .111751880031D-01  .338442623615D-05  .515370428467D+04
     .439184000000D+06 -.117346644402D-06  .975665082515D+00 -.175088644028D-06
     .960968085229D+00  .317656250000D+03  .160617238357D+01 -.869964808955D-08
     .230723896291D-09  .100000000000D+01  .170500000000D+04  .000000000000D+00
     .340000000000D+01  .630000000000D+02 -.419095158577D-08  .150000000000D+02
     .432756000000D+06  .400000000000D+01
